STARLINK-30981          
1 58494U 23186X   26068.06319376  .00000481  00000+0  27010-4 0  9993
2 58494  43.0033  66.9033 0001484 266.4652  93.6030 15.27574809125793
REAL                    
1 64875U 25154G   26068.72233414  .00022901  00000+0  82904-3 0  9994
2 64875  97.4133 137.2581 0001853 118.5876 241.5550 15.28408058 34830
